{
"type": "FeatureCollection",
"name": "waterways_cabrera",
"crs": { "type": "name", "properties": { "name": "urn:ogc:def:crs:EPSG::21896" } },
"features": [
{ "type": "Feature", "properties": { "name": null, "name:en": null, "waterway": "stream", "covered": null, "width": null, "depth": null, "layer": null, "blockage": null, "tunnel": null, "natural": null, "water": null, "source": null, "name:es": null, "osm_id": 1005702924, "osm_type": "ways_line", "MunNombre": "CABRERA", "MunAAdmini": null, "MunArea": 420.05644010600003, "MunCodigo": "25120", "SHAPE_Leng": 0.98850696376400005, "SHAPE_Area": 0.0341753114701 }, "geometry": { "type": "LineString", "coordinates": [ [ 1291341.415381707949564, 906331.956630443804897 ], [ 1291362.562502940185368, 906340.312040654360317 ], [ 1291392.378344149095938, 906346.623823962640017 ], [ 1291432.366779031697661, 906339.052145326742902 ], [ 1291452.343909923918545, 906340.884055944741704 ], [ 1291491.040668206987903, 906366.78279969189316 ], [ 1291521.411306601949036, 906380.800734275602736 ], [ 1291566.718442522920668, 906390.414190745679662 ], [ 1291573.279508203500882, 906393.987493669963442 ], [ 1291582.488598964642733, 906404.387709432165138 ], [ 1291594.413989416090772, 906406.494025421910919 ], [ 1291624.543296655174345, 906404.814632690628059 ], [ 1291640.313148147659376, 906415.234836378600448 ], [ 1291673.110059685073793, 906421.256934100296348 ], [ 1291700.508967265253887, 906436.151469923206605 ], [ 1291704.962932358495891, 906441.500570317264646 ], [ 1291711.168396331369877, 906459.596084615797736 ], [ 1291725.697884267661721, 906486.594758087652735 ], [ 1291750.69333375361748, 906505.633095267461613 ], [ 1291768.816326469182968, 906532.056050473824143 ], [ 1291786.390020220074803, 906538.031829873565584 ], [ 1291814.720892272423953, 906539.014810402411968 ], [ 1291856.120965486392379, 906557.206563031184487 ], [ 1291868.349290729733184, 906558.428286583628505 ], [ 1291884.132016096496955, 906568.261917127179913 ], [ 1291901.118174920091406, 906573.638177785673179 ], [ 1291909.143699840176851, 906581.964839582331479 ], [ 1291915.57702307892032, 906601.898647166788578 ] ] } },
{ "type": "Feature", "properties": { "name": "Río Pilar", "name:en": null, "waterway": "river", "covered": null, "width": null, "depth": null, "layer": null, "blockage": null, "tunnel": null, "natural": null, "water": null, "source": "landsat", "name:es": null, "osm_id": 94403668, "osm_type": "ways_line", "MunNombre": "CABRERA", "MunAAdmini": null, "MunArea": 420.05644010600003, "MunCodigo": "25120", "SHAPE_Leng": 0.98850696376400005, "SHAPE_Area": 0.0341753114701 }, "geometry": { "type": "LineString", "coordinates": [ [ 1301353.001143216621131, 937990.931321348645724 ], [ 1301343.094791774870828, 937928.609804918407463 ], [ 1301382.203436681767926, 937799.137965559726581 ], [ 1301382.942036961670965, 937724.359207440167665 ], [ 1301389.883107565110549, 937669.849078438128345 ], [ 1301422.668475695420057, 937599.638598682591692 ], [ 1301451.155803189612925, 937564.806166575290263 ], [ 1301485.406048053875566, 937518.7231726271566 ], [ 1301499.046643513487652, 937465.464169334969483 ], [ 1301487.114365007262677, 937393.156108609982766 ], [ 1301498.124104654416442, 937348.711517284857109 ], [ 1301552.115723692113534, 937260.161383863072842 ], [ 1301561.84836445376277, 937215.302902806783095 ], [ 1301536.288454802706838, 937028.878870562301017 ], [ 1301518.020706915296614, 936972.756950514740311 ], [ 1301479.208640998927876, 936903.127032417454757 ], [ 1301469.943446491844952, 936867.748056619660929 ], [ 1301479.040039491606876, 936843.589295909972861 ], [ 1301527.13871394074522, 936828.693582239560783 ], [ 1301579.816861232509837, 936820.743277761386707 ], [ 1301597.389928583754227, 936788.398417237447575 ], [ 1301609.476609561126679, 936757.717996410443448 ], [ 1301613.357249587308615, 936717.456385981175117 ], [ 1301583.67141995485872, 936664.794727227883413 ], [ 1301556.886053300462663, 936635.844721311703324 ], [ 1301541.163797177374363, 936593.126636734814383 ], [ 1301533.946022071642801, 936560.511033574934117 ], [ 1301560.748336896533147, 936544.30445492384024 ], [ 1301600.954978324240074, 936545.766756921308115 ], [ 1301610.247043405426666, 936516.327980607165955 ], [ 1301597.612637376878411, 936467.752790556289256 ], [ 1301562.662935557309538, 936443.369910586508922 ], [ 1301538.146511493483558, 936397.378927900688723 ], [ 1301537.825302396900952, 936370.288325046305545 ], [ 1301560.335135459899902, 936354.443825037567876 ], [ 1301594.767168895108625, 936343.974981975276023 ], [ 1301654.480999224353582, 936306.533935981336981 ], [ 1301668.675945343682542, 936236.969752092147246 ], [ 1301632.000602142186835, 936219.965186730376445 ], [ 1301626.215059394249693, 936157.818207167671062 ], [ 1301631.168755438644439, 936095.718022852670401 ], [ 1301667.210568281123415, 936002.391660124529153 ], [ 1301668.300139580387622, 935895.387655598809943 ], [ 1301662.153259020298719, 935811.463766997330822 ], [ 1301639.618537913542241, 935694.273879264015704 ], [ 1301613.390690742293373, 935594.408194413408637 ], [ 1301570.466416789917275, 935440.319112236844376 ], [ 1301506.839045702945441, 935360.522017390350811 ], [ 1301502.057843014132231, 935293.728876021574251 ], [ 1301524.698990097269416, 935265.153549442533404 ], [ 1301522.469079900998622, 935203.428088803193532 ], [ 1301496.940698718652129, 935160.633390226634219 ], [ 1301493.006436990574002, 935076.440245918929577 ], [ 1301457.395734382327646, 935046.642132269218564 ], [ 1301425.298716103192419, 935033.439300954109058 ], [ 1301372.083012572024018, 934938.344475867692381 ], [ 1301299.968365078326315, 934903.333089669351466 ], [ 1301227.837960857432336, 934873.070981693686917 ], [ 1301137.38934890832752, 934821.603707005968317 ], [ 1301132.278053266694769, 934800.619312152964994 ], [ 1301150.050302969291806, 934771.817433799849823 ], [ 1301141.307977232849225, 934648.740203745081089 ], [ 1301110.187445961870253, 934538.618893962586299 ], [ 1301084.834951299242675, 934482.828431647852995 ], [ 1301005.24619312514551, 934415.002181886811741 ], [ 1300929.968102377373725, 934314.39965018176008 ], [ 1300890.966601236024871, 934260.877983716549352 ], [ 1300849.551311764167622, 934214.455618466599844 ], [ 1300843.329793403390795, 934172.754841330694035 ], [ 1300850.384045895654708, 934080.140653665759601 ], [ 1300780.182497875066474, 933997.467289896681905 ], [ 1300748.31638305215165, 933961.338906569755636 ], [ 1300732.635189429856837, 933868.627612626645714 ], [ 1300744.476484814891592, 933821.141301617957652 ], [ 1300738.434176394483075, 933768.868912092759274 ], [ 1300768.907210872508585, 933684.734480468789116 ], [ 1300783.875162021955475, 933599.375418576528318 ], [ 1300753.452067179838195, 933533.516698566265404 ], [ 1300721.760561682283878, 933494.920315341441892 ], [ 1300740.601894124876708, 933435.157799643930048 ], [ 1300677.48815168836154, 933407.782946212915704 ], [ 1300645.45360644091852, 933358.546832020161673 ], [ 1300585.853120212908834, 933348.010712904855609 ], [ 1300486.218727305531502, 933360.867438289220445 ], [ 1300456.200528610497713, 933330.63493624329567 ], [ 1300453.785527441650629, 933294.238545767264441 ], [ 1300443.101218885276467, 933233.515387614490464 ], [ 1300383.420315862167627, 933213.624715557205491 ], [ 1300349.336771481670439, 933175.474662127438933 ], [ 1300342.404202380683273, 933092.888804302085191 ], [ 1300329.788834598381072, 933024.310464487061836 ], [ 1300301.590361036360264, 932978.198090677033179 ] ] } },
{ "type": "Feature", "properties": { "name": null, "name:en": null, "waterway": "stream", "covered": null, "width": null, "depth": null, "layer": null, "blockage": null, "tunnel": null, "natural": null, "water": null, "source": null, "name:es": null, "osm_id": 635830219, "osm_type": "ways_line", "MunNombre": "CABRERA", "MunAAdmini": null, "MunArea": 420.05644010600003, "MunCodigo": "25120", "SHAPE_Leng": 0.98850696376400005, "SHAPE_Area": 0.0341753114701 }, "geometry": { "type": "LineString", "coordinates": [ [ 1288300.576219698647037, 931045.906018956098706 ], [ 1288327.3101709370967, 931077.970624351873994 ], [ 1288334.371161691145971, 931108.799174679326825 ], [ 1288328.89599534124136, 931141.95660266536288 ], [ 1288344.841966457199305, 931189.395397692220286 ], [ 1288376.884716416243464, 931240.449883168796077 ], [ 1288406.635627673007548, 931260.679965033195913 ], [ 1288427.501559804193676, 931264.299798791995272 ], [ 1288450.036546137649566, 931302.284300090512261 ], [ 1288479.728787172352895, 931340.889407193288207 ], [ 1288483.829303872538731, 931365.775383209344 ], [ 1288507.002335281809792, 931391.917732446803711 ], [ 1288546.309988120105118, 931409.820640611462295 ], [ 1288567.736740374471992, 931422.319968331372365 ], [ 1288595.046349284239113, 931458.548715022508986 ], [ 1288625.327456340193748, 931500.698028866783716 ], [ 1288664.019619323778898, 931523.336767122033052 ], [ 1288725.352319230558351, 931554.338858342845924 ], [ 1288759.832397927995771, 931587.026291448506527 ], [ 1288783.634016909403726, 931604.282080264296383 ], [ 1288791.213838662020862, 931657.029871252016164 ], [ 1288791.683479458559304, 931697.899604938575067 ], [ 1288826.097123492509127, 931751.330967402784154 ], [ 1288864.811912921955809, 931766.852336594485678 ], [ 1288901.155546566238627, 931776.444010164472274 ], [ 1288938.204790613846853, 931801.767598002916202 ] ] } },
{ "type": "Feature", "properties": { "name": null, "name:en": null, "waterway": "stream", "covered": null, "width": null, "depth": null, "layer": null, "blockage": null, "tunnel": null, "natural": null, "water": null, "source": null, "name:es": null, "osm_id": 634442015, "osm_type": "ways_line", "MunNombre": "CABRERA", "MunAAdmini": null, "MunArea": 420.05644010600003, "MunCodigo": "25120", "SHAPE_Leng": 0.98850696376400005, "SHAPE_Area": 0.0341753114701 }, "geometry": { "type": "LineString", "coordinates": [ [ 1296155.125456863548607, 928104.309945066110231 ], [ 1296137.082877638284117, 928151.652959447354078 ], [ 1296141.186564487870783, 928171.802603263407946 ], [ 1296145.189594403840601, 928226.324224049691111 ], [ 1296137.377392526715994, 928242.294947012560442 ], [ 1296139.109569710446522, 928260.067904936615378 ], [ 1296160.153487854171544, 928301.759492163546383 ], [ 1296191.351165365893394, 928335.635507718194276 ], [ 1296224.966145586455241, 928361.216921270941384 ], [ 1296287.71658705547452, 928412.066353322472423 ], [ 1296288.254250250058249, 928431.32989808160346 ], [ 1296292.048542381031439, 928457.699912151903845 ], [ 1296296.459022399969399, 928475.791575611685403 ], [ 1296316.625886525958776, 928510.218507019919343 ], [ 1296335.563589666970074, 928556.785242063808255 ], [ 1296361.450110304635018, 928572.56680725060869 ], [ 1296384.081536659272388, 928584.186531376559287 ], [ 1296470.283477284014225, 928667.857745248009451 ], [ 1296482.106616763863713, 928700.475323389051482 ], [ 1296486.192706254543737, 928725.971812148112804 ], [ 1296477.651678055524826, 928784.736815516836941 ], [ 1296477.544505851808935, 928817.614405939821154 ], [ 1296439.2683334229514, 928850.965350357582793 ], [ 1296435.598620777018368, 928878.506643524277024 ], [ 1296435.18404781119898, 928917.006787483696826 ], [ 1296444.202639493625611, 928984.574327126145363 ], [ 1296443.728578184032813, 929037.897025126963854 ], [ 1296453.426698026014492, 929081.168119487469085 ], [ 1296451.548836381640285, 929108.117474048864096 ], [ 1296446.646987724583596, 929148.684148643398657 ], [ 1296435.862407913897187, 929165.829627304221503 ], [ 1296425.364939790451899, 929183.573821664205752 ], [ 1296403.448750020936131, 929228.822948226588778 ], [ 1296396.513800213579088, 929251.903432586695999 ], [ 1296407.453586542746052, 929279.193482575123198 ], [ 1296412.446878234390169, 929302.611773033044301 ], [ 1296417.114883475936949, 929333.722661031759344 ], [ 1296416.454127585748211, 929355.639124371111393 ], [ 1296415.762887968681753, 929383.489013401092961 ], [ 1296398.435352823697031, 929395.576268362812698 ], [ 1296376.062831365969032, 929396.687754486338235 ], [ 1296366.788806030061096, 929404.06332752679009 ], [ 1296362.566564773209393, 929420.333528739167377 ], [ 1296361.871463590301573, 929449.367885202518664 ], [ 1296354.349222578806803, 929471.84865871060174 ], [ 1296364.432415155461058, 929489.062213316792622 ], [ 1296380.788328881841153, 929502.15606212860439 ], [ 1296391.476245570229366, 929514.622565699391998 ], [ 1296397.365171121433377, 929539.527167246094905 ], [ 1296404.68343679071404, 929579.535930476034991 ], [ 1296409.092234895564616, 929601.480013347347267 ], [ 1296418.506400310434401, 929639.713356837048195 ], [ 1296414.554753034608439, 929661.630144346854649 ], [ 1296407.03345426148735, 929683.812024441431277 ], [ 1296403.705398587044328, 929698.612829713849351 ], [ 1296378.835761351045221, 929735.859685980132781 ], [ 1296359.073038798291236, 929758.300474389339797 ], [ 1296338.648976424941793, 929802.823760189465247 ], [ 1296324.205248036189005, 929844.244826830923557 ], [ 1296330.677553040906787, 929870.922533924691379 ], [ 1296325.846222851891071, 929889.858601265237667 ], [ 1296311.38941849861294, 929931.877395014627837 ], [ 1296292.247850536368787, 929951.364497693022713 ], [ 1296275.450626279693097, 929981.519665816798806 ], [ 1296263.473126817960292, 929996.292203828226775 ], [ 1296258.0452875145711, 930014.052893171901815 ], [ 1296268.668718651402742, 930049.633361378218979 ], [ 1296261.414210517657921, 930078.635200945078395 ], [ 1296254.794873642502353, 930096.978704644716345 ], [ 1296260.096901704790071, 930117.730133920093067 ], [ 1296268.994739507557824, 930130.201883989386261 ], [ 1296282.026319117285311, 930156.901024622609839 ], [ 1296284.335268884897232, 930181.793931909021921 ], [ 1296268.177091038785875, 930200.106261237058789 ], [ 1296252.587817589752376, 930224.641787393484265 ], [ 1296234.914330756757408, 930250.775649544666521 ], [ 1296196.713103930233046, 930261.311228621983901 ], [ 1296158.453811295563355, 930289.625033690477721 ], [ 1296123.761344328057021, 930318.537201241822913 ], [ 1296103.498031975002959, 930317.28651315101888 ], [ 1296067.087248074589297, 930324.285571576911025 ], [ 1296033.752262994181365, 930305.21381127263885 ], [ 1295968.754134114133194, 930303.230354336556047 ], [ 1295922.19415745139122, 930316.694400391308591 ], [ 1295913.178814430721104, 930336.812314650742337 ], [ 1295920.272719698026776, 930356.971754900063388 ], [ 1295923.159341656370088, 930385.419938825885765 ], [ 1295926.815125934779644, 930426.855713949538767 ] ] } },
{ "type": "Feature", "properties": { "name": null, "name:en": null, "waterway": "stream", "covered": null, "width": null, "depth": null, "layer": null, "blockage": null, "tunnel": null, "natural": null, "water": null, "source": null, "name:es": null, "osm_id": 635830237, "osm_type": "ways_line", "MunNombre": "CABRERA", "MunAAdmini": null, "MunArea": 420.05644010600003, "MunCodigo": "25120", "SHAPE_Leng": 0.98850696376400005, "SHAPE_Area": 0.0341753114701 }, "geometry": { "type": "LineString", "coordinates": [ [ 1284830.998675608774647, 923271.471099579939619 ], [ 1284851.658902721013874, 923338.480771923903376 ], [ 1284850.324474177323282, 923385.27666985662654 ], [ 1284829.32675490854308, 923423.720961650949903 ], [ 1284812.997646879637614, 923498.320204907795414 ], [ 1284810.521215727319941, 923526.151242333464324 ], [ 1284824.706518768332899, 923569.442014007596299 ], [ 1284873.538557792082429, 923593.292124493978918 ], [ 1284914.087494430597872, 923595.786507597076707 ], [ 1284960.591699633747339, 923599.483751966850832 ], [ 1284989.782551559619606, 923607.864939856226556 ], [ 1285017.122992791235447, 923639.352652906789444 ], [ 1285036.688782755518332, 923675.553856371901929 ], [ 1285059.830715867923573, 923712.939483947935514 ], [ 1285081.823423706460744, 923737.304317594622262 ], [ 1285115.800246332772076, 923743.918296432239003 ], [ 1285141.950940196402371, 923771.849232553271577 ], [ 1285141.833355915499851, 923809.760514847119339 ], [ 1285148.812866337830201, 923867.839565019123256 ], [ 1285150.562348944367841, 923880.873316953307949 ], [ 1285168.371167392935604, 923906.409626684966497 ], [ 1285186.798722542123869, 923926.01482989906799 ], [ 1285214.757722845301032, 923951.571590321371332 ], [ 1285222.364960962673649, 923997.210963903809898 ], [ 1285230.607460517901927, 924031.595039224019274 ], [ 1285250.764142161700875, 924070.764753826661035 ], [ 1285271.535797804128379, 924101.634565207408741 ], [ 1285302.53304774616845, 924108.239456821815111 ], [ 1285358.586840657517314, 924108.413550698431209 ], [ 1285397.894565059337765, 924127.497047991375439 ], [ 1285435.368221631972119, 924160.787621068884619 ], [ 1285440.527974775526673, 924224.783158902078867 ], [ 1285437.37358346581459, 924281.059822432114743 ], [ 1285458.112046573776752, 924326.142395597998984 ], [ 1285468.059525948949158, 924387.784047922468744 ], [ 1285491.604109780630097, 924485.010951014002785 ], [ 1285489.125501588452607, 924516.99300757155288 ], [ 1285462.146376435179263, 924562.524942424846813 ], [ 1285428.004029368981719, 924609.218982855090871 ], [ 1285430.904211746063083, 924634.709115120698698 ], [ 1285451.705160059966147, 924659.646135463728569 ], [ 1285492.211367799434811, 924675.767044592532329 ], [ 1285523.764409606810659, 924693.05558314814698 ], [ 1285546.953627885319293, 924715.044625721755438 ], [ 1285561.710760269779712, 924763.661897350335494 ], [ 1285602.181873667286709, 924791.040095619042404 ], [ 1285650.994694337714463, 924820.813100795494393 ], [ 1285690.287237008567899, 924841.081312980270013 ], [ 1285718.838665940100327, 924865.455949360271916 ], [ 1285728.879817233188078, 924896.890389969921671 ], [ 1285716.328469282016158, 924903.957673679804429 ], [ 1285698.451791434315965, 924900.348784459754825 ], [ 1285672.813407493988052, 924897.302385128568858 ], [ 1285650.124965286813676, 924907.304625492310151 ], [ 1285623.705467664636672, 924965.866610011900775 ], [ 1285606.277762920828536, 925007.288366326247342 ], [ 1285617.478960897773504, 925048.190504945348948 ], [ 1285635.259624790633097, 925086.168763394351117 ], [ 1285682.860488530714065, 925119.491313570644706 ], [ 1285711.954872009111568, 925162.231403760495596 ], [ 1285733.889658763306215, 925201.396002383320592 ], [ 1285743.350729394238442, 925229.862134661525488 ], [ 1285736.643738926853985, 925277.239297204883769 ], [ 1285741.882163098081946, 925315.765188339399174 ], [ 1285780.587080811150372, 925335.434025168069638 ], [ 1285809.729344007559121, 925362.777183346333914 ], [ 1285834.669326987816021, 925397.213645339012146 ], [ 1285855.988871045643464, 925444.667222010320984 ], [ 1285883.743645668495446, 925531.834901838330552 ], [ 1285902.641424767905846, 925592.918169283308089 ], [ 1285911.452055553905666, 925637.377285246970132 ], [ 1285928.053933511953801, 925668.234606476034969 ], [ 1285954.8594730948098, 925678.391270464053378 ], [ 1285985.87470974563621, 925675.521620981744491 ], [ 1286011.590649514226243, 925653.685010174755007 ], [ 1286031.959208671934903, 925624.714216921944171 ], [ 1286057.701075789518654, 925594.586874950444326 ], [ 1286088.732999896397814, 925586.39301912591327 ], [ 1286119.722406226908788, 925595.367328099790029 ], [ 1286151.276915504597127, 925612.058634404791519 ], [ 1286175.049360312987119, 925635.832047725911252 ], [ 1286183.278076109709218, 925674.356378694297746 ], [ 1286187.317388797644526, 925719.398434082046151 ], [ 1286197.267379398224875, 925779.856206579133868 ], [ 1286212.63698045257479, 925824.335969921783544 ], [ 1286232.877777308225632, 925836.243302684160881 ], [ 1286269.173704872839153, 925861.827036701259203 ], [ 1286316.208833553828299, 925887.455470237997361 ], [ 1286370.98715411638841, 925914.868181418976746 ], [ 1286444.86484964331612, 925938.798596494249068 ], [ 1286505.049826111178845, 925954.395378380198963 ], [ 1286559.275996725773439, 925969.962478695670143 ], [ 1286612.829425788251683, 926008.6400363126304 ], [ 1286650.87055115448311, 926048.453447426203638 ], [ 1286676.37140855495818, 926091.769740130053833 ], [ 1286673.858600135659799, 926134.422639122232795 ], [ 1286668.357119819149375, 926176.468429965781979 ], [ 1286676.01300052087754, 926206.102595916716382 ], [ 1286696.209089944139123, 926232.233935165102594 ], [ 1286750.370050364173949, 926268.544802532182075 ], [ 1286781.907577747479081, 926290.560797012178227 ], [ 1286797.282307461369783, 926333.258772917324677 ], [ 1286819.831398798152804, 926367.688418471603654 ], [ 1286889.920761571498588, 926457.956629120744765 ], [ 1286914.778123131487519, 926518.461649216129445 ], [ 1286923.658654352417216, 926540.406631618039683 ], [ 1286977.192982603330165, 926585.006708179134876 ], [ 1287002.191645722603425, 926600.493627910967916 ], [ 1287058.11054605897516, 926646.872371797333471 ], [ 1287106.918315372429788, 926677.831499138381332 ], [ 1287147.449719174997881, 926682.109877887764014 ], [ 1287188.117079808376729, 926646.683260438614525 ], [ 1287222.9038917561993, 926582.812279949663207 ], [ 1287249.241032251389697, 926554.46920394198969 ], [ 1287276.087357894983143, 926551.587044239975512 ], [ 1287298.697711518732831, 926566.468820605194196 ], [ 1287323.569703615503386, 926622.236544278799556 ], [ 1287352.716784351505339, 926647.798622227972373 ], [ 1287369.392506487201899, 926654.957554736640304 ], [ 1287420.006936415564269, 926680.587208580342121 ], [ 1287446.185776300029829, 926699.044595347600989 ], [ 1287462.123198566026986, 926750.035596978035755 ], [ 1287491.242224819725379, 926784.486319730756804 ], [ 1287525.775666371220723, 926801.187905062921345 ], [ 1287557.944969782140106, 926813.133340495638549 ], [ 1287595.457744335755706, 926833.397592848399654 ], [ 1287657.903871427755803, 926886.317367085372098 ], [ 1287692.9853526330553, 926919.602602245053276 ], [ 1287712.634744870942086, 926932.106422145385295 ], [ 1287750.768459889804944, 926942.288609886309132 ], [ 1287810.967952220467851, 926953.149195873760618 ], [ 1287861.008016717154533, 926970.486551344045438 ], [ 1287896.715938556939363, 926995.471919651376083 ], [ 1287934.829051597509533, 927012.185048827086575 ], [ 1287997.340275046415627, 927047.925870865117759 ], [ 1288072.333938339725137, 927094.96367899433244 ], [ 1288121.135796030052006, 927127.694797704578377 ], [ 1288149.113684193696827, 927143.191657909424976 ], [ 1288180.014875306747854, 927176.46405904693529 ], [ 1288191.831397833768278, 927212.045040564145893 ], [ 1288175.067838256247342, 927232.724968262133189 ], [ 1288146.945876279380172, 927262.855441897525452 ], [ 1288143.818667355924845, 927309.635662334738299 ], [ 1288155.537823254009709, 927376.022309600142762 ], [ 1288182.10516936192289, 927461.417677560122684 ], [ 1288211.188208905048668, 927503.573107606498525 ], [ 1288230.145344801712781, 927545.098806411027908 ], [ 1288211.59754993673414, 927563.990889050299302 ], [ 1288193.667038043029606, 927574.007307905470952 ], [ 1288076.780991062289104, 927570.128889922751114 ], [ 1287892.960974338231608, 927614.567123945103958 ], [ 1287838.041827723849565, 927628.606688088504598 ], [ 1287569.393629377242178, 927720.17626852018293 ], [ 1287570.336392084369436, 927798.372745151165873 ], [ 1287561.815412581432611, 927852.851059068110771 ], [ 1287578.345008449163288, 927906.212966336985119 ], [ 1287559.040011547738686, 927974.870203869766556 ], [ 1287549.318239579210058, 928032.897957694833167 ], [ 1287557.442676081787795, 928104.010624588001519 ], [ 1287581.052881500683725, 928182.289777810452506 ], [ 1287632.253565075108781, 928208.508672344265506 ], [ 1287685.915524291573092, 928212.231495240004733 ], [ 1287726.455613659694791, 928217.097290820209309 ], [ 1287850.230129993520677, 928302.799847126705572 ], [ 1287821.450064921518788, 928351.280986639088951 ], [ 1287790.178634331561625, 928431.755623443052173 ], [ 1287744.517169103724882, 928538.241875056177378 ], [ 1287737.211516861338168, 928587.975315588875674 ], [ 1287774.678815050283447, 928808.472824209486134 ], [ 1287791.106486635282636, 928893.824974422575906 ], [ 1287800.524812928168103, 928931.767205718904734 ], [ 1287845.571052895626053, 929019.589952638489194 ], [ 1287873.957037479616702, 929095.504740283242427 ], [ 1287985.703677657525986, 929211.965124096139334 ], [ 1288018.956290939124301, 929257.089550409116782 ], [ 1288049.85237703868188, 929295.100020966026932 ], [ 1288128.327262153616175, 929372.358404824859463 ], [ 1288138.885741842444986, 929429.266204172978178 ], [ 1288176.779453557915986, 929514.686879296787083 ], [ 1288196.955188707914203, 929546.741359574953094 ], [ 1288237.287962313275784, 929613.219143940950744 ], [ 1288271.789784610737115, 929642.95033690368291 ], [ 1288296.745899561326951, 929671.466804818366654 ], [ 1288320.523812357801944, 929696.415211844956502 ], [ 1288338.320588742615655, 929724.908958115265705 ], [ 1288327.498778248671442, 929750.942907330114394 ], [ 1288313.11600024998188, 929774.585623525432311 ], [ 1288327.325567002873868, 929805.43681764381472 ], [ 1288318.765840553678572, 929871.759351492160931 ], [ 1288301.89495458221063, 929926.211240218603052 ], [ 1288287.497120653511956, 929954.591576137114316 ], [ 1288293.346534913172945, 929988.969461393542588 ], [ 1288300.362627896480262, 930034.021922110347077 ], [ 1288303.784028422320262, 930083.789571951841936 ], [ 1288295.314664146862924, 930121.67518892372027 ], [ 1288283.288266010815278, 930152.442960429470986 ], [ 1288268.867974644061178, 930184.387535030953586 ], [ 1288280.668244132539257, 930224.706462990143336 ], [ 1288305.548709990922362, 930276.911232268903404 ], [ 1288318.519395374460146, 930326.709281826624647 ], [ 1288320.789055487606674, 930361.07580204657279 ], [ 1288305.19807673827745, 930387.094525719294325 ], [ 1288295.576851505320519, 930413.13224640279077 ], [ 1288291.914291866123676, 930439.177860916010104 ], [ 1288304.941651761997491, 930467.656513068825006 ], [ 1288304.775680179242045, 930519.792671969626099 ], [ 1288294.950771224452183, 930609.799565968220122 ], [ 1288270.931867545703426, 930660.664274897659197 ], [ 1288261.28423054004088, 930694.992840129649267 ], [ 1288258.810904482379556, 930724.606564114568755 ], [ 1288257.519727123668417, 930753.039630966261029 ], [ 1288252.550616887630895, 930815.820267562987283 ], [ 1288253.604260482359678, 930858.473856741096824 ], [ 1288266.619959986768663, 930894.05902844038792 ], [ 1288292.806524213403463, 930909.539939795504324 ], [ 1288308.291800902923569, 930916.695811670157127 ], [ 1288312.981608351925388, 930941.594681849819608 ], [ 1288301.591309424489737, 930961.106876787613146 ], [ 1288288.398225616198033, 930981.200001112185419 ], [ 1288287.718412603484467, 931009.635021257796325 ], [ 1288285.250906561501324, 931033.913333651027642 ], [ 1288300.576219698647037, 931045.906018956098706 ] ] } },
{ "type": "Feature", "properties": { "name": null, "name:en": null, "waterway": "stream", "covered": null, "width": null, "depth": null, "layer": null, "blockage": null, "tunnel": null, "natural": null, "water": null, "source": null, "name:es": null, "osm_id": 1005702925, "osm_type": "ways_line", "MunNombre": "CABRERA", "MunAAdmini": null, "MunArea": 420.05644010600003, "MunCodigo": "25120", "SHAPE_Leng": 0.98850696376400005, "SHAPE_Area": 0.0341753114701 }, "geometry": { "type": "LineString", "coordinates": [ [ 1292299.794729369226843, 904942.362620769999921 ], [ 1292301.37125164619647, 904961.484642883297056 ], [ 1292299.098695399938151, 904973.776074769673869 ], [ 1292303.397401049965993, 904982.678051417460665 ], [ 1292303.521256562788039, 904989.486242366256192 ], [ 1292301.566518051549792, 904996.000300896470435 ], [ 1292303.473950147395954, 905005.038909883704036 ], [ 1292303.020120206987485, 905008.004186708596535 ], [ 1292295.971156456973404, 905022.207202350255102 ], [ 1292291.77196538541466, 905028.116673798067495 ], [ 1292290.998530206270516, 905037.44600723835174 ], [ 1292288.612521543633193, 905039.508767480845563 ], [ 1292279.90966288628988, 905056.374527416541241 ], [ 1292264.533818027470261, 905062.548880025511608 ], [ 1292258.850389223080128, 905066.527722893632017 ], [ 1292251.784765113377944, 905086.210141960415058 ], [ 1292245.203140713274479, 905093.009003246435896 ], [ 1292240.817033493192866, 905112.843475815956481 ], [ 1292225.136446240823716, 905120.500227452837862 ], [ 1292222.739320751279593, 905122.5629530971637 ], [ 1292223.155269767157733, 905132.050874534761533 ], [ 1292227.021313272882253, 905136.955402528052218 ], [ 1292223.390188430435956, 905153.526633633417077 ], [ 1292227.532598493853584, 905166.280357165378518 ], [ 1292231.977633987786248, 905174.596088196383789 ], [ 1292235.229244780959561, 905184.081567998975515 ], [ 1292235.578941527288407, 905215.343215307919309 ], [ 1292238.830547884805128, 905224.828696509939618 ], [ 1292239.711877500871196, 905231.207474683877081 ], [ 1292229.05896088341251, 905249.39564135891851 ], [ 1292226.341591051081195, 905261.685710997437127 ], [ 1292227.819527509622276, 905265.686337757972069 ], [ 1292233.022101533366367, 905273.550523299956694 ], [ 1292245.220576217398047, 905280.993214612826705 ], [ 1292249.232079103589058, 905285.599311716039665 ], [ 1292251.013827872695401, 905288.427485356107354 ], [ 1292253.809335196390748, 905301.619902417063713 ], [ 1292273.318979872390628, 905311.010965337278321 ], [ 1292282.551677637267858, 905313.706844379892573 ], [ 1292308.936889357864857, 905318.369980430114083 ], [ 1292321.319884194759652, 905316.337657321477309 ], [ 1292332.344573346432298, 905322.149560730089433 ], [ 1292343.909019073005766, 905344.257591310655698 ], [ 1292342.844786982052028, 905350.475477939588018 ], [ 1292347.748150531435385, 905354.342635272885673 ], [ 1292345.989405047381297, 905376.830750156310387 ] ] } },
{ "type": "Feature", "properties": { "name": "Río Sumapaz", "name:en": null, "waterway": "river", "covered": null, "width": null, "depth": null, "layer": null, "blockage": null, "tunnel": null, "natural": null, "water": null, "source": null, "name:es": null, "osm_id": 979396217, "osm_type": "ways_line", "MunNombre": "CABRERA", "MunAAdmini": null, "MunArea": 420.05644010600003, "MunCodigo": "25120", "SHAPE_Leng": 0.98850696376400005, "SHAPE_Area": 0.0341753114701 }, "geometry": { "type": "LineString", "coordinates": [ [ 1300301.590361036360264, 932978.198090677033179 ], [ 1300220.693337031872943, 932935.665379974292591 ], [ 1300190.570687017403543, 932859.324615483055823 ], [ 1300197.467810097616166, 932770.086741073755547 ], [ 1300120.604372462723404, 932731.519656339194626 ], [ 1300012.048921918263659, 932637.363930754363537 ], [ 1299917.774408818921074, 932551.547040527220815 ], [ 1299671.484614022541791, 932388.52562071941793 ], [ 1299501.403037443291396, 932365.661740236333571 ], [ 1299206.866628331365064, 932456.038759426330216 ], [ 1299028.617347384570166, 932513.79608986992389 ], [ 1298936.658498280448839, 932443.874352934770286 ], [ 1298837.508739551296458, 932373.24295043211896 ], [ 1298754.2693100143224, 932254.618763252394274 ], [ 1298524.127378710312769, 932172.242656903574243 ], [ 1298476.860820303438231, 932153.798417228274047 ], [ 1298441.58918792149052, 932118.821802537422627 ], [ 1298433.031737630721182, 932057.342936286935583 ], [ 1298409.7116617213469, 932005.479564535547979 ], [ 1298337.217313166242093, 931967.413259090506472 ], [ 1298243.741452612215653, 931953.698553996859118 ], [ 1298170.257266761967912, 931972.983685211627744 ], [ 1298116.383757409173995, 931955.458901071920991 ], [ 1298065.567329359473661, 931917.796576074557379 ], [ 1298047.802672411315143, 931873.62340777576901 ], [ 1298065.456280758371577, 931762.758744714548811 ], [ 1298061.544310518307611, 931681.435585190076381 ], [ 1297995.673779234522954, 931627.107486205175519 ], [ 1297927.358227165881544, 931589.365567764267325 ], [ 1297848.525672165909782, 931484.050207378459163 ], [ 1297778.025197280105203, 931451.42678558616899 ], [ 1297713.471354988170788, 931425.94111887703184 ], [ 1297631.273886376526207, 931336.268275502836332 ], [ 1297590.811287846416235, 931246.743979204678908 ], [ 1297595.401669698301703, 931182.895611323183402 ], [ 1297652.213629313511774, 931077.861062563606538 ], [ 1297318.87358150491491, 930861.308101567206904 ], [ 1297053.673864670563489, 930854.459717233316042 ], [ 1296758.31302881333977, 930745.713152931537479 ], [ 1296425.352107928134501, 930450.160240905708633 ], [ 1296267.227908538887277, 930446.277822272735648 ], [ 1296211.437211989657953, 930440.261539668426849 ], [ 1296167.358167098369449, 930504.201645088149235 ], [ 1296112.132015729090199, 930515.965649167774245 ], [ 1295970.104457100620493, 930448.052190265036188 ], [ 1295926.815125934779644, 930426.855713949538767 ], [ 1295884.846001451835036, 930433.748094091308303 ], [ 1295841.127458547707647, 930455.479601438273676 ], [ 1295809.01160574844107, 930498.890773750259541 ], [ 1295763.803790834266692, 930537.521250732825138 ], [ 1295712.52775039174594, 930555.132208877475932 ], [ 1295650.627882969332859, 930540.705280664842576 ], [ 1295561.189367278013378, 930533.251182185369544 ], [ 1295469.213227754691616, 930574.396991641726345 ], [ 1295416.598573188995942, 930613.900020641507581 ], [ 1295318.704739391570911, 930639.041610352112912 ], [ 1295251.291854806244373, 930637.925159535720013 ], [ 1295205.194709782488644, 930598.222092557698488 ], [ 1295157.69558779662475, 930575.927476897602901 ], [ 1295107.16057179751806, 930550.468087771791033 ], [ 1295004.920529898721725, 930548.153561787446961 ], [ 1294922.550679201027378, 930490.222288636025041 ], [ 1294843.150249328231439, 930466.108249954064377 ], [ 1294771.225448871962726, 930461.058819493395276 ], [ 1294679.068408266408369, 930445.283358865533955 ], [ 1294598.388578314799815, 930383.837855656049214 ], [ 1294525.646965899970382, 930414.619146580458619 ], [ 1294430.938652238342911, 930393.67715061979834 ], [ 1294384.261600242229179, 930361.290102086262777 ], [ 1294343.597275538835675, 930312.340001494972967 ], [ 1294213.650591891491786, 930170.279550710693002 ], [ 1294152.61738848942332, 930114.931620193878189 ], [ 1294133.640145184937865, 930087.427957118023187 ], [ 1294133.909379507880658, 930007.847850027959794 ], [ 1294095.467583226971328, 929914.515275337733328 ], [ 1294071.229998473543674, 929853.23165929922834 ], [ 1294010.125914715928957, 929857.384055187460035 ], [ 1293974.716019335901365, 929888.47510968381539 ], [ 1293919.384486893657595, 929919.302352616330609 ], [ 1293866.519984984304756, 929926.448215670417994 ], [ 1293713.287053931038827, 929937.03277609590441 ], [ 1293610.815503203077242, 929930.77868418849539 ], [ 1293511.81070663779974, 929959.483214770909399 ], [ 1293473.420986319426447, 929977.037416883511469 ], [ 1293462.399789223680273, 930016.011630851193331 ], [ 1293402.28069200203754, 930059.465198313468136 ], [ 1293297.711450727423653, 930103.793386297533289 ], [ 1293203.212386011146009, 930145.408894885564223 ], [ 1293130.21073592454195, 930136.604846290545538 ], [ 1293042.515435285400599, 930119.838507556822151 ], [ 1292964.385191095527261, 930098.365334461908787 ], [ 1292834.962152086896822, 930086.368309639510699 ], [ 1292717.691079671960324, 930094.845406689215451 ], [ 1292628.090012715663761, 930141.5802827734733 ], [ 1292599.543333143228665, 930213.086980356485583 ], [ 1292601.800223453203216, 930343.916017283103429 ], [ 1292579.258274954510853, 930401.217494878219441 ], [ 1292537.674027115572244, 930444.243974731070921 ], [ 1292500.146480193594471, 930494.512057705782354 ], [ 1292441.178170235827565, 930539.96200274862349 ], [ 1292335.400554782012478, 930552.727043723803945 ], [ 1292250.34557802323252, 930562.061034605489112 ], [ 1292141.274375592824072, 930627.474041148205288 ], [ 1292029.893047760706395, 930671.570531134493649 ], [ 1291907.608575395308435, 930670.013909568544477 ], [ 1291836.968316802289337, 930729.097349273157306 ], [ 1291748.092287479434162, 930816.91413111181464 ], [ 1291606.682859590742737, 930923.512792867142707 ], [ 1291532.606118702329695, 930948.623544364003465 ], [ 1291458.437848604051396, 931002.17186978366226 ], [ 1291346.166131002828479, 931019.344522859551944 ], [ 1291203.998311089351773, 931064.858833010075614 ], [ 1291083.454317192081362, 931058.30511660000775 ], [ 1290995.471015517832711, 931062.549511892371811 ], [ 1290897.801098798401654, 931109.424952424247749 ], [ 1290781.237722103018314, 931189.193762297742069 ], [ 1290681.48785722348839, 931226.13319543551188 ], [ 1290557.98370509291999, 931234.558694645413198 ], [ 1290325.283258793177083, 931251.456084091565572 ], [ 1290154.873124573612586, 931222.925362316891551 ], [ 1290056.041758806677535, 931185.160163678927347 ], [ 1289970.332789713516831, 931166.842021601041779 ], [ 1289846.522243506275117, 931163.533848154824227 ], [ 1289713.538156158989295, 931199.061382406856865 ], [ 1289535.15094753773883, 931262.881086210138164 ], [ 1289417.564065392594784, 931260.301789218559861 ], [ 1289345.247518593911082, 931274.449539390043356 ], [ 1289237.669799912720919, 931343.665655931690708 ], [ 1289134.827009302331135, 931427.121155163971707 ], [ 1289013.011906814528629, 931568.40902675606776 ], [ 1289009.468749321531504, 931650.831657195114531 ], [ 1288942.850686799502, 931784.691287895198911 ], [ 1288938.204790613846853, 931801.767598002916202 ], [ 1288926.629382773768157, 931844.325662510353141 ], [ 1288834.698088426375762, 931898.382322565070353 ], [ 1288768.438120189588517, 931962.096152878832072 ], [ 1288721.208477080799639, 932047.201574918930419 ], [ 1288623.494275183882564, 932095.107291113235988 ], [ 1288500.201379590202123, 932156.657287606038153 ], [ 1288418.820748607628047, 932210.670250630588271 ], [ 1288344.557701621903107, 932277.734621000941843 ], [ 1288311.256228112615645, 932338.996736347675323 ], [ 1288288.670739017659798, 932407.38855511508882 ], [ 1288268.979122910648584, 932457.292705944855697 ], [ 1288213.520301500568166, 932501.735997815383598 ], [ 1288136.319698670646176, 932524.557763893040828 ], [ 1288043.670652582077309, 932574.062674144050106 ], [ 1288003.604084822814912, 932623.414608883671463 ], [ 1287989.154994342941791, 932681.748142944532447 ], [ 1287982.035851099994034, 932714.457432374823838 ], [ 1288008.521621134364977, 932806.517247832147405 ], [ 1288022.686767545295879, 932892.648819756926969 ], [ 1288023.236227808287367, 932988.500028668320738 ], [ 1287985.071766190696508, 933082.688767471234314 ], [ 1287913.721779674524441, 933111.617214529658668 ], [ 1287772.334067777730525, 933151.999918073881418 ], [ 1287703.174252217868343, 933240.056687761680223 ], [ 1287707.904306975193322, 933346.126964427996427 ], [ 1287639.801122062373906, 933461.860316399601288 ], [ 1287534.349728542380035, 933510.527026618248783 ], [ 1287483.074035606812686, 933780.232746945228428 ], [ 1287446.720409653848037, 933861.033085365546867 ], [ 1287399.501485055778176, 933887.636575352749787 ], [ 1287325.835977202747017, 933900.507076104637235 ], [ 1287261.598552107345313, 933947.755755210993811 ], [ 1287237.94765036739409, 933984.47445465659257 ], [ 1287208.213427434209734, 934060.270407522562891 ], [ 1287159.087948090396821, 934196.497953675221652 ], [ 1287151.83292154641822, 934292.58930329408031 ], [ 1287109.153068394400179, 934342.508086221525446 ], [ 1286983.493962859269232, 934519.668420723872259 ], [ 1286947.166660643648356, 934543.705393289332278 ], [ 1286901.098597198026255, 934544.299739830661565 ], [ 1286859.863533603958786, 934528.327812286559492 ], [ 1286794.245893392711878, 934485.91103498369921 ], [ 1286756.074232996441424, 934443.570954639348201 ], [ 1286709.741535894107074, 934422.612765694851987 ], [ 1286657.389744593063369, 934424.150227054255083 ], [ 1286608.632388493744656, 934455.818586195469834 ], [ 1286459.446477967780083, 934708.008451732690446 ], [ 1286417.879018022678792, 934865.789243436185643 ], [ 1286346.050798765383661, 935024.292418922879733 ], [ 1286273.22911938210018, 935264.139958893065341 ], [ 1286242.93862137501128, 935413.355747443041764 ], [ 1286152.960147922160104, 935609.413743491633795 ], [ 1285902.948445035144687, 935855.955858821747825 ], [ 1285722.520918066846207, 935971.450812919763848 ], [ 1285558.77800122462213, 935899.299402592936531 ], [ 1285305.335386179853231, 935804.004620710853487 ], [ 1285251.175736774690449, 935804.684272146434523 ], [ 1285220.807000040076673, 935822.010276135406457 ], [ 1285171.572168111801147, 935850.47810579801444 ], [ 1285086.271821999689564, 935971.236025080084801 ], [ 1284994.684287752024829, 936059.253543623257428 ], [ 1284904.560545882210135, 936078.658314330386929 ], [ 1284792.98865761840716, 936113.746162063675001 ], [ 1284714.729958457872272, 936170.270309297251515 ], [ 1284554.404173399321735, 936334.423505421262234 ], [ 1284494.11139999772422, 936441.238694990170188 ] ] } },
{ "type": "Feature", "properties": { "name": "Río Sumapaz", "name:en": null, "waterway": "river", "covered": null, "width": null, "depth": null, "layer": null, "blockage": null, "tunnel": null, "natural": null, "water": null, "source": null, "name:es": null, "osm_id": 979396220, "osm_type": "ways_line", "MunNombre": "CABRERA", "MunAAdmini": null, "MunArea": 420.05644010600003, "MunCodigo": "25120", "SHAPE_Leng": 0.98850696376400005, "SHAPE_Area": 0.0341753114701 }, "geometry": { "type": "MultiLineString", "coordinates": [ [ [ 1284218.636071970919147, 936565.113188586547039 ], [ 1284173.272234316915274, 936561.598498550476506 ], [ 1284111.71757258544676, 936601.92646587616764 ], [ 1284084.779623282840475, 936718.552778499084525 ], [ 1284029.002045157365501, 936791.364585401606746 ], [ 1283944.027108982671052, 936835.005137946340255 ], [ 1283911.452126144897193, 936902.947666736319661 ] ], [ [ 1283802.003880561096594, 936949.140890952083282 ], [ 1283776.993829616811126, 936952.525094192940742 ], [ 1283703.301454690517858, 936985.785636526998132 ], [ 1283676.085966274142265, 937002.177871397929266 ] ] ] } },
{ "type": "Feature", "properties": { "name": "Río Sumapaz", "name:en": null, "waterway": "river", "covered": null, "width": null, "depth": null, "layer": null, "blockage": null, "tunnel": null, "natural": null, "water": null, "source": "SIMCI-ONUDC, con modificaciones por OCHA", "name:es": null, "osm_id": 1202565562, "osm_type": "ways_line", "MunNombre": "CABRERA", "MunAAdmini": null, "MunArea": 420.05644010600003, "MunCodigo": "25120", "SHAPE_Leng": 0.98850696376400005, "SHAPE_Area": 0.0341753114701 }, "geometry": { "type": "MultiLineString", "coordinates": [ [ [ 1292838.311428123153746, 904673.957537775509991 ], [ 1292948.58062116545625, 904801.760575449559838 ], [ 1292953.688973502721637, 904862.448993541416712 ], [ 1292870.784353038063273, 904954.550578979076818 ], [ 1292837.461143774213269, 904978.669457725831307 ], [ 1292819.950816092081368, 904999.205669189337641 ], [ 1292816.173168941866606, 905016.385337563115172 ], [ 1292805.014008541125804, 905043.737666993169114 ], [ 1292754.380322066135705, 905081.220211570966057 ], [ 1292732.091046922374517, 905100.856279972475022 ], [ 1292710.153313579736277, 905107.309465497732162 ], [ 1292701.342348786536604, 905112.175406763795763 ], [ 1292681.379697411786765, 905105.450662932824343 ], [ 1292666.779996692901477, 905101.398976392694749 ], [ 1292653.760337413521484, 905115.284930735826492 ], [ 1292652.813104017172009, 905130.547085867263377 ], [ 1292631.092905593803152, 905156.859883555211127 ], [ 1292619.29172712075524, 905168.657383243669756 ], [ 1292601.094154116697609, 905170.24025891488418 ], [ 1292585.812319607241079, 905192.997169714653865 ], [ 1292566.628663613926619, 905197.045573916519061 ], [ 1292551.94089094363153, 905200.011779757449403 ], [ 1292527.876082955626771, 905218.457988047157414 ], [ 1292501.779355891980231, 905217.636846034205519 ], [ 1292474.89608947862871, 905230.440031979465857 ], [ 1292468.883988423040137, 905243.74955963040702 ], [ 1292437.320455492474139, 905278.0246433269931 ], [ 1292427.580823123920709, 905292.075551599264145 ], [ 1292416.3299268593546, 905313.073582376819104 ], [ 1292399.124039395712316, 905332.282337256125174 ], [ 1292386.50910945283249, 905359.353433877462521 ], [ 1292376.652465842664242, 905364.360097852419131 ], [ 1292345.989405047381297, 905376.830750156310387 ], [ 1292333.73227099631913, 905425.178738647839054 ], [ 1292267.912865831051022, 905490.554732257849537 ], [ 1292257.089137921342626, 905531.966411004657857 ], [ 1292230.061886486597359, 905581.14388791215606 ], [ 1292213.143317213980481, 905619.227178650675341 ], [ 1292193.587861321400851, 905672.379241016926244 ], [ 1292178.987208598759025, 905723.454227574169636 ], [ 1292169.410821759141982, 905760.59680390462745 ], [ 1292152.802931547164917, 905809.861316689639352 ], [ 1292126.863823148887604, 905852.289589519030415 ], [ 1292132.126544136554003, 905895.144991711014882 ], [ 1292111.31579450564459, 905940.577665001153946 ], [ 1292078.815681353909895, 905972.104506299365312 ], [ 1292064.207132990239188, 906029.422669320367277 ], [ 1292044.974881084170192, 906085.996141276089475 ], [ 1292018.88857693085447, 906114.708681550459005 ], [ 1292013.82407088810578, 906167.395597901544534 ], [ 1291985.710709324572235, 906219.060286402935162 ], [ 1291987.054179328493774, 906267.172836899990216 ], [ 1292003.302510174224153, 906324.928159938193858 ], [ 1291983.557650630827993, 906363.611554308212362 ], [ 1291968.484624972566962, 906434.665604494861327 ], [ 1291942.721009250264615, 906466.976686379523017 ], [ 1291929.858443346805871, 906506.002057534293272 ], [ 1291931.9341507460922, 906550.995201754500158 ], [ 1291915.57702307892032, 906601.898647166788578 ], [ 1291918.374353412305936, 906676.438724517240189 ], [ 1291895.589171087136492, 906723.913114395225421 ], [ 1291885.27615766483359, 906772.864583536167629 ], [ 1291904.206235183170065, 906804.426377565599978 ], [ 1291916.487622492946684, 906861.140146031277254 ], [ 1291919.833503092406318, 906897.989951937226579 ], [ 1291961.985622669104487, 906917.468240419751965 ], [ 1291992.73294776910916, 906957.379428073763847 ], [ 1292047.748505504569039, 907003.132007768610492 ], [ 1292072.258025087183341, 907057.414699544548057 ], [ 1292116.451795249711722, 907103.798506019986235 ], [ 1292151.681016023969278, 907139.849162233876996 ], [ 1292191.562613010872155, 907178.15013093338348 ], [ 1292217.660657139029354, 907203.811780246207491 ], [ 1292206.417124284664169, 907251.498518191277981 ], [ 1292224.621690114960074, 907280.224477237439714 ], [ 1292266.491308489814401, 907304.749941594549455 ], [ 1292299.084397489670664, 907340.980864771641791 ], [ 1292329.58392022899352, 907381.821444946457632 ], [ 1292343.644794719293714, 907420.098949089995585 ], [ 1292341.27491656714119, 907460.5069009445142 ], [ 1292370.309155241353437, 907460.518261719727889 ], [ 1292378.025255983695388, 907486.334109985735267 ], [ 1292414.598622646182775, 907519.112533768056892 ], [ 1292451.40194912510924, 907542.150414505158551 ], [ 1292466.988635453162715, 907554.197622771142051 ], [ 1292474.056498835794628, 907556.710591659299098 ] ], [ [ 1292580.453026002505794, 907640.518522902741097 ], [ 1292583.623664133017883, 907649.388475125073455 ], [ 1292613.212420129450038, 907678.913328649476171 ], [ 1292611.689336517360061, 907669.269659583107568 ] ], [ [ 1293060.695816724095494, 907816.87048911920283 ], [ 1293069.320275168865919, 907827.782420203322545 ], [ 1293101.124414541292936, 907863.690508097177371 ], [ 1293143.801097457064316, 907904.126311538508162 ], [ 1293159.161107302177697, 907921.154398720012978 ], [ 1293156.618158996105194, 907938.105356197454967 ], [ 1293153.100025721592829, 907950.337628622772172 ], [ 1293139.477557685459033, 907972.213771184557118 ], [ 1293173.043485373724252, 907981.183713195263408 ], [ 1293190.113520933315158, 907995.383229787927121 ], [ 1293204.157858388265595, 908006.307894960511476 ], [ 1293198.260232653468847, 908014.857717427075841 ], [ 1293203.641667493153363, 908025.921810773201287 ], [ 1293182.114488676190376, 908036.416149714263156 ], [ 1293180.234131641685963, 908047.623972321860492 ], [ 1293186.019310911884531, 908061.191056377603672 ], [ 1293192.68265140382573, 908074.860467985155992 ], [ 1293217.199363333638757, 908072.168391546467319 ], [ 1293225.405757282627746, 908054.127866199240088 ], [ 1293240.270700768334791, 908069.405459539615549 ], [ 1293257.173714776756242, 908080.051118741394021 ], [ 1293265.154829980339855, 908069.313829830032773 ] ], [ [ 1293281.108426647260785, 908089.88164267630782 ], [ 1293273.814037006348372, 908103.802503409329802 ], [ 1293246.785405198577791, 908113.338983746711165 ], [ 1293239.585773165570572, 908133.054126306553371 ], [ 1293264.814641671255231, 908166.373999937437475 ], [ 1293277.325173066696152, 908191.507481842883863 ], [ 1293262.998342688893899, 908221.838690201053396 ], [ 1293274.857074519619346, 908245.575389877543785 ], [ 1293321.470049981493503, 908217.280674011213705 ], [ 1293335.308608327293769, 908179.398418784490786 ], [ 1293350.899182693567127, 908192.444666579831392 ] ], [ [ 1293363.532203931128606, 908223.368646381539293 ], [ 1293357.812539951410145, 908234.572643530438654 ], [ 1293369.78231050609611, 908238.668087889091112 ] ], [ [ 1293449.342121618799865, 908287.687880920595489 ], [ 1293463.173506088554859, 908299.887112446129322 ], [ 1293465.203899720218033, 908298.616328958771192 ] ], [ [ 1293549.829660482006148, 908367.715598409529775 ], [ 1293550.243495761184022, 908368.333557937876321 ], [ 1293551.342435063794255, 908368.896069819922559 ] ], [ [ 1293823.483769978396595, 908530.360485991230235 ], [ 1293826.936383425956592, 908536.139834414701909 ], [ 1293831.918442562222481, 908564.892261539353058 ], [ 1293831.239456502255052, 908593.959327238262631 ], [ 1293841.326055508339778, 908611.735238602035679 ], [ 1293837.982644005911425, 908632.170754684600979 ], [ 1293834.913735640235245, 908657.344969069003128 ], [ 1293840.854032466886565, 908667.436761492979713 ], [ 1293826.158323970623314, 908691.091768891783431 ], [ 1293809.991907950956374, 908712.074428516440094 ], [ 1293804.238536733435467, 908738.723703498602845 ], [ 1293789.856926619308069, 908761.494091999717057 ], [ 1293768.347056622849777, 908773.571258900221437 ], [ 1293746.554301595082507, 908780.024125406402163 ], [ 1293739.946109304437414, 908795.401756030041724 ], [ 1293748.538857577834278, 908814.390725800883956 ], [ 1293752.048914767801762, 908833.662904127500951 ], [ 1293768.389601876260713, 908857.114747176412493 ], [ 1293778.443121950142086, 908885.595005467534065 ], [ 1293772.061875588493422, 908921.120267758728005 ], [ 1293773.487926136236638, 908941.869368964224122 ], [ 1293781.176431216998026, 908965.593416859977879 ], [ 1293787.66856607561931, 908987.830430187517777 ], [ 1293781.631395604927093, 909009.143199043464847 ], [ 1293756.718746620696038, 909032.069246373022906 ], [ 1293750.79320513131097, 909049.64078195230104 ], [ 1293728.603353913873434, 909087.497238700743765 ], [ 1293699.076000784058124, 909106.811370768235065 ], [ 1293728.404925041599199, 909151.789684297982603 ], [ 1293740.598293086979538, 909164.269711445667781 ], [ 1293753.658379971049726, 909184.158076411811635 ], [ 1293756.894805504241958, 909198.392688433872536 ], [ 1293766.096938586561009, 909210.863490834017284 ], [ 1293787.426256619859487, 909250.038759522372857 ], [ 1293801.391890323720872, 909275.553374451119453 ], [ 1293799.828645751345903, 909299.248876317753457 ], [ 1293787.17669200594537, 909298.445990368491039 ], [ 1293760.901019555516541, 909251.429131606826559 ], [ 1293742.986421272857115, 909258.779477319447324 ], [ 1293758.939657538197935, 909306.827145550167188 ], [ 1293763.351396665209904, 909329.356629934045486 ], [ 1293770.194898012792692, 909335.012264899443835 ], [ 1293776.728113349992782, 909343.921447886968963 ], [ 1293778.49371290486306, 909351.919257531873882 ], [ 1293788.573643506970257, 909371.79844661639072 ], [ 1293797.267404794925824, 909397.639951774268411 ], [ 1293808.740769871044904, 909409.199002960231155 ], [ 1293813.473636149894446, 909421.357138908351772 ], [ 1293825.930549807148054, 909449.291394548723474 ], [ 1293837.190065555740148, 909465.277695617289282 ], [ 1293832.046357354149222, 909492.515527765615843 ], [ 1293842.264918596949428, 909514.299166831187904 ], [ 1293855.427675190847367, 909526.118062778841704 ], [ 1293859.334956201724708, 909542.745838017668575 ], [ 1293859.295678067486733, 909551.856123333214782 ], [ 1293868.234253231901675, 909556.034909250680357 ], [ 1293875.678093406837434, 909558.127962356898934 ], [ 1293889.107890296494588, 909555.501664698240347 ], [ 1293909.698816200252622, 909552.897505931789055 ], [ 1293919.766735256183892, 909576.640051751164719 ], [ 1293916.426890299655497, 909595.880034787813202 ], [ 1293911.883471316192299, 909619.566338270669803 ], [ 1293916.875287429429591, 909645.064355153241195 ], [ 1293927.519723582779989, 909672.948782839812338 ], [ 1293909.509878378827125, 909711.105892604449764 ], [ 1293906.813388715963811, 909712.87978455866687 ], [ 1293901.142450430896133, 909716.415639142505825 ], [ 1293888.285649156197906, 909727.932705476996489 ], [ 1293880.455366189824417, 909750.125489728990942 ], [ 1293876.223159753251821, 909770.259355509304442 ], [ 1293837.995857479749247, 909783.768004844547249 ], [ 1293802.423022377537563, 909812.693960149772465 ], [ 1293870.053018557373434, 909834.533407812006772 ], [ 1293869.107527495361865, 909852.607392494333908 ], [ 1293855.320732843596488, 909873.597280345624313 ], [ 1293845.051317082718015, 909900.642130935098976 ], [ 1293848.826241406844929, 909913.30653551814612 ], [ 1293845.407843977212906, 909936.365325967781246 ], [ 1293839.303586947033182, 909954.168743799556978 ], [ 1293846.643550300505012, 909979.043046354781836 ], [ 1293856.389119032304734, 909995.522852306137793 ], [ 1293871.447950405534357, 910012.650078586186282 ], [ 1293880.665236508939415, 910020.172825218178332 ], [ 1293877.490496986545622, 910032.760382956126705 ], [ 1293871.061705553671345, 910040.445038492209278 ], [ 1293872.962620348669589, 910051.409978734678589 ], [ 1293856.20673927012831, 910068.837268243660219 ], [ 1293857.955765574704856, 910082.170664813485928 ], [ 1293857.78229597886093, 910091.513000505510718 ], [ 1293861.926967635983601, 910099.67316678352654 ], [ 1293870.577645868528634, 910099.843846825533547 ], [ 1293875.489331286167726, 910100.899605518323369 ], [ 1293893.945651423186064, 910112.502486902638339 ], [ 1293905.259747728705406, 910121.581500542466529 ], [ 1293909.090440746629611, 910134.17967383004725 ], [ 1293908.848664401797578, 910165.583830140414648 ], [ 1293908.916893631452695, 910166.113383786287159 ] ], [ [ 1293920.48899265890941, 910238.516870263265446 ], [ 1293926.012002568226308, 910257.183881983510219 ], [ 1293921.870158399455249, 910294.797169670229778 ], [ 1293911.625343294348568, 910328.24039421393536 ], [ 1293909.47152016684413, 910370.221319581032731 ], [ 1293912.360735116060823, 910378.023379077087156 ], [ 1293941.422253153054044, 910387.002418311312795 ], [ 1293950.053080132463947, 910389.984781863866374 ], [ 1293972.080183531856164, 910404.720460019307211 ], [ 1293980.188268145313486, 910436.449387879343703 ], [ 1293975.069062766153365, 910452.130451917648315 ], [ 1293965.303394510643557, 910474.472184847807512 ], [ 1293958.51056378078647, 910502.74545120075345 ], [ 1293964.709422983461991, 910522.612747188890353 ], [ 1293978.694119845982641, 910534.655712573090568 ], [ 1293992.694318536669016, 910538.108591953990981 ], [ 1294000.897879872703925, 910539.019600090803578 ], [ 1294007.73252803646028, 910547.487017071340233 ], [ 1294026.179530157707632, 910562.056665408308618 ], [ 1294040.584190390305594, 910582.10439501341898 ], [ 1294023.513363973936066, 910604.268498575664125 ], [ 1294018.630534707335755, 910615.433826886001043 ], [ 1294022.306711118668318, 910631.219644623575732 ], [ 1294024.95150331244804, 910646.116683995700441 ], [ 1294046.023642546497285, 910653.222395995748229 ], [ 1294067.054328940575942, 910652.180633692536503 ], [ 1294083.377867929171771, 910655.851071112556383 ], [ 1294091.580816732719541, 910678.469920509960502 ], [ 1294100.028675065375865, 910693.827760509680957 ], [ 1294117.160331841325387, 910702.249650254962035 ], [ 1294133.319021239876747, 910701.04670491872821 ] ], [ [ 1294669.813575348816812, 910817.273840167326853 ], [ 1294683.760617303662002, 910822.865558465477079 ], [ 1294720.014836056157947, 910821.672028931672685 ], [ 1294718.524880873505026, 910800.021444509737194 ] ], [ [ 1298755.968520904192701, 917696.587400580290705 ], [ 1298760.183884074445814, 917715.404395507881418 ], [ 1298768.453699116129428, 917741.002745315548964 ], [ 1298769.27206072350964, 917770.584988720831461 ], [ 1298771.895613927626982, 917794.139853780623525 ] ], [ [ 1298699.96711839735508, 918002.923035577055998 ], [ 1298697.807130464352667, 918017.24748787865974 ], [ 1298712.373461781069636, 918048.921150517417118 ], [ 1298758.326688770204782, 918063.944756079930812 ], [ 1298762.831559173529968, 918126.782559758867137 ], [ 1298779.856976067181677, 918178.999317489564419 ], [ 1298792.414778240490705, 918209.360392301226966 ], [ 1298806.607443599961698, 918229.066007247427478 ], [ 1298830.858696370385587, 918246.644742324249819 ], [ 1298875.961456564255059, 918252.798532921355218 ], [ 1298918.064067882485688, 918258.30078372778371 ], [ 1298951.105295428773388, 918295.158539542346261 ], [ 1298968.088534501614049, 918325.511551247211173 ], [ 1298978.523921039886773, 918358.921379968873225 ], [ 1298984.416196631500497, 918390.844491804600693 ], [ 1298984.847330091521144, 918426.768820983590558 ], [ 1298992.413000841857865, 918456.94813603151124 ], [ 1299003.190505677834153, 918477.107975367689505 ], [ 1299024.352922286372632, 918500.942815521964803 ], [ 1299058.233400290831923, 918518.518968767602928 ], [ 1299073.827145397197455, 918541.68305467616301 ], [ 1299108.093978519551456, 918567.164633115520701 ], [ 1299106.085424799937755, 918604.498262216104195 ], [ 1299078.777657105587423, 918639.2055775730405 ], [ 1299013.056785442866385, 918669.130623921751976 ], [ 1298957.823501113336533, 918701.922886648448184 ], [ 1298940.001243109349161, 918739.925953786470927 ], [ 1298954.449393690098077, 918787.739843366201967 ], [ 1298996.326787122292444, 918797.570055636111647 ], [ 1299010.70473857363686, 918776.283231731271371 ], [ 1299051.229924824088812, 918788.256814333493821 ], [ 1299041.98275683959946, 918836.095301755121909 ], [ 1299048.760673768818378, 918879.722526086494327 ], [ 1299064.263450042810291, 918928.037992307683453 ], [ 1299079.076330392621458, 918969.48772404785268 ], [ 1299089.632290944224223, 919003.362980721285567 ], [ 1299103.049873589305207, 919042.992785264621489 ], [ 1299119.649251225404441, 919075.071701737004332 ], [ 1299140.02325709653087, 919098.494585116393864 ], [ 1299160.579969519516453, 919120.401433123508468 ], [ 1299180.114418405806646, 919149.091123746940866 ], [ 1299196.243744218023494, 919175.1020861947909 ], [ 1299216.80766491801478, 919240.271614136523567 ], [ 1299226.236746342619881, 919278.815022350405343 ], [ 1299208.871436522575095, 919298.907794328872114 ], [ 1299186.233229979872704, 919291.728822327917442 ], [ 1299173.73019709601067, 919282.799712041974999 ], [ 1299142.773657871410251, 919261.966857010731474 ], [ 1299103.989864092320204, 919268.950898452312686 ], [ 1299027.219617222901434, 919297.977095472626388 ], [ 1298998.804920113645494, 919383.703569520846941 ], [ 1299010.374486056156456, 919416.984255235409364 ], [ 1299020.845335192512721, 919432.084100265521556 ], [ 1299046.825267280451953, 919461.890191878890619 ], [ 1299070.438406264409423, 919501.6963051360799 ], [ 1299070.134417406283319, 919534.407960932003334 ], [ 1299062.318357215728611, 919576.206591532332823 ], [ 1299069.362501219846308, 919605.930466097895987 ], [ 1299108.487413336755708, 919638.545927394647151 ], [ 1299133.526833723299205, 919656.36001790384762 ], [ 1299149.778038234682754, 919678.950701688532718 ], [ 1299175.822672379203141, 919789.83577061444521 ], [ 1299207.448467956157401, 919876.395103263086639 ], [ 1299283.668679396156222, 919981.827205245499499 ], [ 1299368.526626045349985, 920031.858048925525509 ], [ 1299478.075494330376387, 919978.548918316606432 ], [ 1299526.986525763059035, 919996.715955990483053 ], [ 1299547.973073484143242, 920023.19649588118773 ], [ 1299480.513763464521617, 920155.714625033433549 ], [ 1299491.502471221145242, 920182.716853321529925 ], [ 1299506.948974984697998, 920199.548607575707138 ], [ 1299537.684310695854947, 920230.344425316667184 ], [ 1299560.036683727521449, 920250.386441659531556 ], [ 1299561.967481914674863, 920272.566408962709829 ], [ 1299579.487123729195446, 920294.807107240892947 ], [ 1299574.471118981018662, 920326.618253111140803 ], [ 1299576.853141546016559, 920343.275580165558495 ], [ 1299592.584349464857951, 920361.469932960462756 ], [ 1299602.632839744910598, 920376.435795197729021 ], [ 1299624.899864198407158, 920391.839130223961547 ], [ 1299636.750826683128253, 920406.43435604032129 ], [ 1299650.994487874209881, 920416.885845772572793 ], [ 1299657.070639201672748, 920425.750391704845242 ], [ 1299680.174496790859848, 920433.263288372312672 ], [ 1299692.93438045331277, 920445.259904683334753 ], [ 1299704.022453055018559, 920455.003920881077647 ], [ 1299733.56789315957576, 920468.360363197047263 ], [ 1299749.414301251992583, 920485.282059165998362 ], [ 1299748.077895378228277, 920499.8906188235851 ], [ 1299755.554957306012511, 920508.781789683736861 ], [ 1299772.093170596985146, 920521.454700164031237 ], [ 1299788.218987771309912, 920534.436270319973119 ], [ 1299795.852199444314465, 920546.660114407888614 ], [ 1299830.972847217693925, 920569.045647188904695 ], [ 1299847.612788875587285, 920574.224298391258344 ], [ 1299870.580903032328933, 920578.969262637547217 ], [ 1299895.173880015034229, 920583.254465406062081 ], [ 1299918.413042719010264, 920604.107644755276851 ], [ 1299930.526304909726605, 920620.109728501061909 ], [ 1299937.594953590538353, 920635.02189154131338 ], [ 1299937.028411083621904, 920655.754820900270715 ], [ 1299943.263739825226367, 920666.988975433516316 ], [ 1299951.500595749821514, 920678.196310281986371 ], [ 1299952.236155347898602, 920684.630524069536477 ], [ 1299957.36679382272996, 920700.566048581153154 ], [ 1299969.345237439498305, 920713.512307278811932 ], [ 1299982.850832132389769, 920718.293536020210013 ], [ 1300007.180974153103307, 920717.828781615826301 ], [ 1300044.095925946719944, 920714.52593593869824 ], [ 1300059.155217286199331, 920720.242049563676119 ], [ 1300064.646025525638834, 920741.769269220530987 ], [ 1300060.435245233122259, 920765.081037632306106 ], [ 1300063.402191606350243, 920800.471340661868453 ], [ 1300060.417182985693216, 920822.945677107898518 ], [ 1300065.373159604147077, 920844.814373732660897 ], [ 1300068.036136710550636, 920857.011333343223669 ], [ 1300066.665424397680908, 920868.409410661435686 ], [ 1300071.355759277008474, 920875.974373572622426 ], [ 1300078.415525598917156, 920890.166976225445978 ], [ 1300089.681763180764392, 920899.800969349569641 ], [ 1300116.310431348625571, 920924.66151280538179 ], [ 1300144.96810327633284, 920923.502159529132769 ], [ 1300184.291755632963032, 920928.443465969408862 ], [ 1300213.750306009547785, 920913.282690280699171 ], [ 1300233.90348721947521, 920894.228610463207588 ], [ 1300267.90731905749999, 920893.750601120758802 ], [ 1300313.207351190038025, 920903.969490979565307 ], [ 1300334.64975279988721, 920912.927572670509107 ], [ 1300345.951392902759835, 920925.395744649111293 ], [ 1300323.190625560935587, 920953.175991949741729 ], [ 1300312.930685603991151, 920990.472453897004016 ], [ 1300316.86922247055918, 921014.064934714930132 ], [ 1300338.383211819455028, 921052.769346751039848 ], [ 1300368.736591959372163, 921074.188000450725667 ], [ 1300394.692356737796217, 921097.341718991403468 ], [ 1300448.564800332300365, 921142.404529359424487 ], [ 1300470.405014974530786, 921176.427304773940705 ], [ 1300484.05376648507081, 921198.988161789253354 ], [ 1300479.780077387113124, 921228.001017589122057 ], [ 1300467.916768871480599, 921252.063248021295294 ], [ 1300455.85742276115343, 921267.899555966607295 ], [ 1300468.829599651740864, 921296.868001918541268 ], [ 1300482.763784079346806, 921313.617835028446279 ], [ 1300502.047137218294665, 921333.562008207780309 ], [ 1300513.077090687584132, 921350.977844125125557 ], [ 1300520.291930865030736, 921358.373833539662883 ], [ 1300527.590419748332351, 921370.89568093966227 ], [ 1300537.955776154296473, 921387.512329165241681 ], [ 1300544.128687543794513, 921400.827642584568821 ], [ 1300549.74584393738769, 921410.60972314979881 ], [ 1300559.743233692133799, 921427.546241894015111 ], [ 1300560.043195750564337, 921451.91312863456551 ], [ 1300564.024966694414616, 921479.314031826565042 ], [ 1300567.630135943414643, 921495.853677826584317 ], [ 1300579.549703010357916, 921523.634281055536121 ], [ 1300585.707718609133735, 921541.58805414068047 ], [ 1300593.556902294978499, 921555.739036284619942 ], [ 1300606.288544804789126, 921579.924379893345758 ], [ 1300622.177944387309253, 921611.060992560582235 ], [ 1300636.59688470303081, 921639.580286448472179 ], [ 1300642.136343858903274, 921666.643028876744211 ], [ 1300659.424345740349963, 921698.51479928556364 ], [ 1300667.000604756409302, 921718.011931943939999 ], [ 1300663.26383405434899, 921732.114702362101525 ], [ 1300655.176160147646442, 921764.591444633202627 ], [ 1300648.387731515103951, 921797.592660870053805 ], [ 1300644.516056360676885, 921846.810293509159237 ], [ 1300643.456675257533789, 921896.280497193220071 ], [ 1300649.21364565868862, 921931.768524029990658 ], [ 1300667.729133319109678, 921955.308263113140129 ], [ 1300691.506953435018659, 921977.901779931387864 ], [ 1300719.36719058547169, 921996.489861156325787 ], [ 1300735.837510530138388, 922019.790590442018583 ], [ 1300760.253999673062935, 922033.928407937288284 ], [ 1300778.433166904840618, 922030.610312447533943 ], [ 1300786.560308845713735, 922006.646836090483703 ], [ 1300795.520868314895779, 922000.155140248592943 ], [ 1300818.481170349521562, 922003.782478512614034 ], [ 1300829.774243904976174, 922015.376258782460354 ], [ 1300823.161735876230523, 922031.650667227455415 ], [ 1300815.624843192985281, 922055.317140356171876 ], [ 1300805.090669086202979, 922091.317491968162358 ], [ 1300802.02368838340044, 922125.349152528564446 ], [ 1300802.180108923465014, 922152.804273068206385 ], [ 1300804.958715024404228, 922177.389511519111693 ], [ 1300807.130278354976326, 922204.031897259876132 ], [ 1300810.517175116343424, 922229.626500125625171 ], [ 1300823.255841754144058, 922248.088599511655048 ], [ 1300840.551331274677068, 922267.16315124486573 ], [ 1300860.668221838306636, 922283.656302333925851 ], [ 1300883.912009110907093, 922299.384584956453182 ], [ 1300902.892725254409015, 922323.424128978163935 ], [ 1300907.537821905920282, 922348.45821123663336 ], [ 1300914.898640744388103, 922376.113646945217624 ], [ 1300928.249045236036181, 922404.873248740797862 ], [ 1300931.85527797229588, 922427.933464187313803 ], [ 1300940.336822862969711, 922452.835981024894863 ], [ 1300946.656379197491333, 922465.432307504001074 ], [ 1300952.666865269420668, 922484.238149260985665 ], [ 1300958.541391507256776, 922503.829555945820175 ], [ 1300966.62574965483509, 922520.848664937773719 ], [ 1300977.686152775771916, 922539.061887139687315 ], [ 1300989.619864258915186, 922569.222914528683759 ], [ 1300987.048227555816993, 922590.934817562694661 ], [ 1300974.269903305452317, 922622.842949620448053 ], [ 1300959.248368562199175, 922671.150228539016098 ], [ 1300966.345430685672909, 922690.90056613390334 ], [ 1300991.003592844121158, 922716.242643254692666 ], [ 1301046.60107765882276, 922753.430071116890758 ], [ 1301059.659314421005547, 922772.734669208875857 ], [ 1301061.45993285626173, 922807.468417466734536 ], [ 1301060.014588690828532, 922838.505259009776637 ], [ 1301054.534301373176277, 922896.773441451252438 ], [ 1301055.720504388678819, 922928.936871277634054 ], [ 1301060.722815128508955, 922943.12313965416979 ], [ 1301099.378700253553689, 922965.299977890215814 ], [ 1301145.065359424334019, 923017.411833009915426 ], [ 1301193.529473647475243, 923090.909729928593151 ], [ 1301203.187647707061842, 923119.801519219297916 ], [ 1301197.688704570755363, 923149.308669419027865 ], [ 1301197.314554665237665, 923182.585223366739228 ], [ 1301204.099404402310029, 923206.01002512127161 ], [ 1301226.974388578906655, 923236.007215671124868 ], [ 1301248.645666097290814, 923266.886175571358763 ], [ 1301283.1627442156896, 923289.802655941108242 ], [ 1301339.212954162620008, 923296.802903871750459 ], [ 1301376.163930414244533, 923302.844843019964173 ], [ 1301397.904012969462201, 923315.834237231058069 ], [ 1301412.13579254806973, 923340.091278055100702 ], [ 1301427.605793670751154, 923366.544275855645537 ], [ 1301430.404331655241549, 923391.716479117050767 ], [ 1301408.602647668216377, 923418.480898959911428 ], [ 1301402.66870363871567, 923455.259962408337742 ], [ 1301434.252002019900829, 923508.633025176241063 ], [ 1301473.221789691364393, 923550.57204835372977 ], [ 1301524.890544367721304, 923609.34605205967091 ], [ 1301549.82250431086868, 923646.158455276861787 ], [ 1301558.707055123290047, 923666.634339282987639 ], [ 1301561.113555163843557, 923689.225890869391151 ], [ 1301549.276206353213638, 923722.299426481942646 ], [ 1301540.725760618690401, 923756.700969255412929 ], [ 1301546.674631812144071, 923791.016534799244255 ], [ 1301557.339118036907166, 923811.199280052562244 ], [ 1301573.021723211975768, 923826.859358780551702 ], [ 1301590.056783161126077, 923840.33186211111024 ], [ 1301599.543032956076786, 923856.957188378670253 ], [ 1301603.25763076171279, 923873.873825845890678 ], [ 1301611.76071565807797, 923902.263900348218158 ], [ 1301623.225731235696003, 923912.131571361445822 ], [ 1301636.601669231196865, 923929.345157836331055 ], [ 1301652.016862813849002, 923955.477087762090378 ], [ 1301656.416660828981549, 923977.111980980727822 ], [ 1301646.197728406405076, 924001.378634901018813 ], [ 1301632.888790533179417, 924059.688098321203142 ], [ 1301608.625150476582348, 924091.31545282737352 ], [ 1301603.158937800209969, 924120.922375753638335 ], [ 1301606.965584108838812, 924143.739887178642675 ], [ 1301613.182303002104163, 924157.088866477133706 ], [ 1301621.228021862450987, 924161.864142060745507 ], [ 1301633.170901977224275, 924158.050265521625988 ], [ 1301642.976486572064459, 924168.742878753924742 ], [ 1301633.271321606822312, 924199.16637047927361 ], [ 1301606.127003224333748, 924220.765589992981404 ], [ 1301574.427686599083245, 924244.652726364787668 ], [ 1301554.690966191003099, 924262.069136407691985 ], [ 1301547.773173180641606, 924279.825935306958854 ], [ 1301543.836749972309917, 924300.548199718934484 ], [ 1301544.066393619403243, 924318.914865262573585 ], [ 1301565.193872404051945, 924335.566829092917033 ], [ 1301584.830818877322599, 924348.97032663912978 ], [ 1301623.592222485691309, 924352.051638747565448 ], [ 1301666.264176170807332, 924342.414571089204401 ], [ 1301693.074056606274098, 924351.988800285966136 ], [ 1301723.352871638257056, 924361.607488120556809 ], [ 1301751.449012796161696, 924379.134523644926958 ], [ 1301779.001477048033848, 924396.305557744344696 ], [ 1301805.88440523808822, 924421.079870899324305 ], [ 1301819.490692336577922, 924456.372434424236417 ], [ 1301829.810193036217242, 924493.735609037335962 ], [ 1301828.787266950821504, 924524.607922988710925 ], [ 1301831.678151563741267, 924558.91370860056486 ], [ 1301843.521603321656585, 924589.196715399040841 ], [ 1301861.632608013693243, 924610.256179281976074 ], [ 1301879.44628720334731, 924637.281691255513579 ], [ 1301891.288310475647449, 924664.56461035949178 ], [ 1301887.195404807338491, 924709.497595681576058 ], [ 1301872.885222866199911, 924726.721173713449389 ], [ 1301867.155684825032949, 924748.323288623127155 ], [ 1301885.266115242382511, 924772.96962566615548 ], [ 1301907.261733613209799, 924796.156199547927827 ], [ 1301923.76059318636544, 924817.166202327236533 ], [ 1301935.082433716394007, 924860.820751770632342 ], [ 1301955.91956602782011, 924888.077550199814141 ], [ 1301987.357412413693964, 924927.645972722326405 ], [ 1302020.94387841783464, 924980.074273148318753 ], [ 1302028.199876194819808, 925022.575415594154038 ], [ 1302031.653079707175493, 925061.698775818571448 ], [ 1302033.732345018070191, 925102.766087815631181 ], [ 1301992.845275185070932, 925182.52922360249795 ], [ 1301946.741477109957486, 925218.425081567023881 ], [ 1301926.254302805289626, 925268.330836121691391 ], [ 1301900.716285164700821, 925315.718239788198844 ], [ 1301872.866933470591903, 925376.382734521990642 ], [ 1301878.608625822234899, 925446.89838076941669 ], [ 1301884.410339359659702, 925495.505692496662959 ], [ 1301928.426048161461949, 925534.163031161995605 ], [ 1301991.552090904209763, 925563.395106595940888 ], [ 1302007.590181589592248, 925582.411044837906957 ], [ 1302014.794730204157531, 925603.047776407329366 ], [ 1302009.805390630848706, 925636.331677307956852 ], [ 1301989.027197495801374, 925679.959452146198601 ], [ 1302007.135535158449784, 925722.230227864114568 ], [ 1302041.630577928153798, 925754.934037516475655 ], [ 1302055.828416213858873, 925789.343127577682026 ], [ 1302070.739613212645054, 925816.370508112479001 ], [ 1302092.617043071892112, 925851.823095384286717 ], [ 1302112.143609322141856, 925895.582015814259648 ], [ 1302102.509399981005117, 925924.577585160848685 ], [ 1302086.904520101146773, 925953.553718001698144 ], [ 1302082.930819758214056, 925989.043963356059976 ], [ 1302096.243227674160153, 926018.756310961325653 ], [ 1302120.015375593677163, 926042.535705907386728 ], [ 1302125.314271335257217, 926064.472608397831209 ], [ 1302134.662317886482924, 926106.294301806716248 ], [ 1302138.175615267129615, 926143.912338629597798 ], [ 1302141.195320300292224, 926182.868304595700465 ], [ 1302153.485291866352782, 926205.580786791048013 ], [ 1302173.114949475275353, 926221.043844417086802 ], [ 1302177.783972767181695, 926255.421996189979836 ], [ 1302182.297774232458323, 926296.4862486848142 ], [ 1302184.37412627460435, 926345.125878722523339 ], [ 1302195.851264303317294, 926385.238624974153936 ], [ 1302195.131143090780824, 926421.968319914536551 ], [ 1302198.608968258369714, 926453.375700046541169 ], [ 1302181.59214208368212, 926475.472373690805398 ], [ 1302169.787571597611532, 926511.944519704440609 ], [ 1302166.054603578289971, 926551.985546268988401 ], [ 1302176.67362322891131, 926596.09197006735485 ], [ 1302224.288408518303186, 926625.285260993987322 ], [ 1302245.116775148548186, 926641.350124229909852 ], [ 1302267.33183007966727, 926668.600769790238701 ], [ 1302275.348082673968747, 926695.949023739667609 ], [ 1302282.059705464635044, 926724.44436194433365 ], [ 1302274.567410542396829, 926754.609292176086456 ], [ 1302263.149711679201573, 926784.938540092087351 ], [ 1302234.535863107535988, 926824.167742216726765 ], [ 1302233.049184144940227, 926864.072192872175947 ], [ 1302259.189664153382182, 926897.933727018884383 ], [ 1302296.691291520604864, 926918.791264572995715 ], [ 1302305.682217297144234, 926933.644077393342741 ], [ 1302291.14845911366865, 926975.055829387390986 ], [ 1302269.530258505605161, 927017.053325773915276 ], [ 1302283.130502696381882, 927053.829799875034951 ], [ 1302302.755975336767733, 927070.488633598200977 ], [ 1302322.205409433692694, 927089.98096217343118 ], [ 1302307.839567788643762, 927120.820875947596505 ], [ 1302305.533313323976472, 927176.730682672117837 ], [ 1302307.628876646747813, 927222.768868077313527 ], [ 1302303.936241778312251, 927267.404326612129807 ], [ 1302323.456896734889597, 927309.314781845430844 ], [ 1302338.820428069448099, 927350.846340066753328 ], [ 1302351.24053649418056, 927384.652115174336359 ], [ 1302372.526013357564807, 927413.859386183554307 ], [ 1302393.425969819305465, 927435.14996352919843 ], [ 1302421.780080443248153, 927461.789863616926596 ], [ 1302431.996863062027842, 927492.743343195994385 ], [ 1302431.586762360297143, 927533.149544684798457 ], [ 1302446.03641561139375, 927578.696807053172961 ], [ 1302481.926588886650279, 927612.811908516101539 ], [ 1302493.559400205966085, 927635.732824221486226 ], [ 1302488.738221638835967, 927692.19907168042846 ], [ 1302477.734673351515085, 927735.216489848680794 ], [ 1302475.247113310266286, 927778.472113193245605 ], [ 1302483.995901788584888, 927826.480573222623207 ], [ 1302500.521813270403072, 927869.466322299325839 ], [ 1302513.50504242698662, 927921.37443415611051 ], [ 1302531.147556621581316, 927973.076405171770602 ], [ 1302531.676732155261561, 928018.589248026022688 ], [ 1302529.039159863721579, 928053.297914321534336 ], [ 1302526.936992129776627, 928131.604234421043657 ], [ 1302534.434506894089282, 928194.963526038569398 ], [ 1302537.47182806674391, 928252.042267463868484 ], [ 1302523.915566988289356, 928293.634256477816962 ], [ 1302530.066992839798331, 928326.666854855953716 ], [ 1302568.434430574066937, 928344.328396650729701 ], [ 1302581.777503320481628, 928381.347853892832063 ], [ 1302567.34976965864189, 928417.434906293870881 ], [ 1302523.060524346074089, 928462.911532012163661 ], [ 1302501.697350663598627, 928488.082393108634278 ], [ 1302472.201271757483482, 928514.887174430070445 ], [ 1302435.228960203239694, 928549.903944516321644 ], [ 1302381.852415164001286, 928599.900757745373994 ], [ 1302351.314349025255069, 928635.946027654223144 ], [ 1302327.368568777805194, 928665.492343215737492 ], [ 1302330.27253064326942, 928688.606108357431367 ], [ 1302347.498762263683602, 928711.16901684703771 ], [ 1302367.705173372058198, 928730.199127255007625 ], [ 1302382.625250057084486, 928750.783933236030862 ], [ 1302391.392096695490181, 928786.382387927966192 ], [ 1302396.608664023457095, 928829.829302189289592 ], [ 1302400.056033875094727, 928856.742070606909692 ], [ 1302373.677649742458016, 928912.694719624123536 ], [ 1302360.32504894817248, 928949.814783277572133 ], [ 1302339.832999950274825, 928994.162635779939592 ], [ 1302324.337115861941129, 929044.062146930489689 ], [ 1302324.790329290321097, 929085.533931742655113 ], [ 1302349.742454508319497, 929115.240610883687623 ], [ 1302381.858575387625024, 929143.786269943695515 ], [ 1302419.949627202469856, 929167.602295663207769 ], [ 1302453.021334571065381, 929196.317202936625108 ], [ 1302481.478047693846747, 929232.068934311391786 ], [ 1302481.784539507469162, 929301.249922184739262 ], [ 1302451.761727254604921, 929325.971534234005958 ], [ 1302394.262316992739215, 929361.850607641739771 ], [ 1302340.209452215582132, 929424.874937410000712 ], [ 1302339.725017294287682, 929501.293401698232628 ], [ 1302336.511063692858443, 929565.846334459376521 ], [ 1302347.045399453025311, 929618.377522371709347 ], [ 1302357.087715925183147, 929678.523648436414078 ], [ 1302361.860331987962127, 929745.316944856313057 ], [ 1302357.780327173182741, 929806.091978171956725 ], [ 1302345.836548503488302, 929861.062328622909263 ], [ 1302338.280777213163674, 929917.154151828493923 ], [ 1302317.072049068054184, 929990.083683578995988 ], [ 1302295.30185652920045, 930074.845775287481956 ], [ 1302285.556068494450301, 930137.60591463802848 ], [ 1302272.242464411538094, 930193.258088477770798 ], [ 1302272.074910147581249, 930244.204223888926208 ], [ 1302263.319024288095534, 930286.55350163881667 ], [ 1302270.624150326475501, 930323.586390588665381 ], [ 1302302.801951502915472, 930333.179715795908123 ], [ 1302335.131827387725934, 930296.553974099690095 ], [ 1302382.909651715774089, 930275.378207036759704 ], [ 1302406.616969929309562, 930321.664755831821822 ], [ 1302405.267420580843464, 930370.249023055541329 ], [ 1302383.650254704989493, 930415.201854049460962 ], [ 1302372.91193191241473, 930448.422478131833486 ], [ 1302376.201610148418695, 930502.856192826875485 ], [ 1302377.866858407389373, 930544.132733652484603 ], [ 1302397.941993010696024, 930569.063320495421067 ], [ 1302406.326149298809469, 930605.878417737199925 ], [ 1302379.507661995012313, 930629.968212687410414 ], [ 1302361.265891002025455, 930645.905104167643003 ], [ 1302340.782877923222259, 930670.569286667741835 ], [ 1302312.060840699356049, 930702.136505102855153 ], [ 1302293.5652384175919, 930737.767076295800507 ], [ 1302310.913729100953788, 930766.873350404202938 ], [ 1302313.058232591254637, 930841.529187528183684 ], [ 1302316.489912210265175, 930886.564453751314431 ], [ 1302337.544932777062058, 930914.376643687719479 ], [ 1302324.634178852662444, 930948.918534374563023 ], [ 1302322.055374092422426, 931002.724027019226924 ], [ 1302321.720712474547327, 931053.669639361323789 ], [ 1302317.705975908087566, 931084.366139817633666 ], [ 1302318.255222456064075, 931123.491307261749171 ], [ 1302323.338700208580121, 931149.712078845128417 ], [ 1302315.075657327193767, 931177.394450937164947 ], [ 1302314.95737945381552, 931203.155252826167271 ], [ 1302333.679075469030067, 931227.107245715102181 ], [ 1302374.874552405439317, 931236.309873148566112 ], [ 1302388.368651976576075, 931250.779319674824364 ], [ 1302396.021036572754383, 931264.945073213428259 ] ], [ [ 1302367.838050541002303, 931315.578677406068891 ], [ 1302366.883179269731045, 931316.456545291934162 ], [ 1302343.675818661693484, 931347.997532751760446 ], [ 1302329.468063251581043, 931364.512234282796271 ], [ 1302307.505929198116064, 931382.573379862471484 ], [ 1302277.954149829689413, 931402.801465578260832 ], [ 1302253.824786645360291, 931410.515565095585771 ], [ 1302220.198354628868401, 931418.917938785161823 ], [ 1302176.785478197503835, 931434.849239695002325 ], [ 1302155.634876603493467, 931459.699310369906016 ], [ 1302137.135253708576784, 931496.558589357417077 ], [ 1302132.063548870151863, 931524.10752528172452 ], [ 1302117.729633713839576, 931555.301340371603146 ], [ 1302077.527618644293398, 931565.198703979374841 ], [ 1302032.790643450338393, 931588.232927735312842 ], [ 1302013.389751953538507, 931618.579734637052752 ], [ 1302013.366995332762599, 931649.090055437176488 ], [ 1302014.95091360853985, 931691.362582677626051 ], [ 1301995.377755725989118, 931730.122413011733443 ], [ 1301978.548353470861912, 931759.49240098032169 ], [ 1301965.651678938884288, 931783.041181869222783 ], [ 1301926.830635376274586, 931812.504709567758255 ], [ 1301885.960448854370043, 931839.647741102264263 ], [ 1301843.025428832508624, 931869.230552754364908 ], [ 1301808.826124909101054, 931892.985857283114456 ], [ 1301781.665349808754399, 931923.22954505844973 ], [ 1301765.57838709349744, 931950.000378072378226 ], [ 1301729.540906347334385, 931985.019400421064347 ], [ 1301708.548421506071463, 932032.796956022386439 ], [ 1301683.159854595083743, 932071.825378633337095 ], [ 1301672.471688847290352, 932137.072935063391924 ], [ 1301647.698553021065891, 932212.005019872565754 ], [ 1301628.903180435532704, 932238.020119409193285 ] ], [ [ 1300683.940065965522081, 932817.351341047906317 ], [ 1300675.391745807603002, 932822.272153612226248 ], [ 1300633.016674347687513, 932844.173921382753178 ], [ 1300595.277673451462761, 932849.197487115627155 ], [ 1300537.037657699314877, 932860.961926410556771 ], [ 1300502.487553542247042, 932866.571674400707707 ], [ 1300459.353985477238894, 932882.504034143756144 ], [ 1300419.56221833685413, 932909.993828414124437 ], [ 1300399.798641947796568, 932956.192053534789011 ], [ 1300371.59961765143089, 932967.712164002936333 ], [ 1300312.884848150890321, 932958.242089913925156 ], [ 1300301.590361036360264, 932978.198090677033179 ] ] ] } }
]
}
